[
    {
        "Altitude(m)": 610399.504551707,
        "Argument of Periapsis(deg)": 0.0,
        "Eccentricity": 0.0,
        "Inclination(deg)": 60.0,
        "Latitude(deg)": 52.111267943610706,
        "Longitude(deg)": -57.415767309545586,
        "Mean Anomaly(deg)": -294.5455,
        "RAAN(deg)": 355.0,
        "Satellite Name": "Test1 1566",
        "Satellite Number": 1566,
        "Semi-Major Axis(m)": 6980739.136638005,
        "Time(s)": 0
    },
    {
        "Altitude(m)": 610481.6560006944,
        "Argument of Periapsis(deg)": 0.00010418945913296404,
        "Eccentricity": 0.0,
        "Inclination(deg)": 60.0,
        "Latitude(deg)": 52.47087098895489,
        "Longitude(deg)": -56.6336332226161,
        "Mean Anomaly(deg)": -293.9253938545382,
        "RAAN(deg)": 354.99957995086027,
        "Satellite Name": "Test1 1566",
        "Satellite Number": 1566,
        "Semi-Major Axis(m)": 6980739.136638005,
        "Time(s)": 10
    }
]